ONEWEB-0403             
1 50483U 21132Q   26133.06340417  .00000173  00000+0  40701-3 0  9994
2 50483  87.9178 342.4442 0001900  90.5023 269.6327 13.18686320216961
ONEWEB-0404             
1 50484U 21132R   26133.00610174  .00000629  00000+0  17389-2 0  9990
2 50484  87.8915  28.0643 0001912  90.2221 269.9127 13.11415658211086
ONEWEB-0405             
1 50485U 21132S   26133.00100002  .00000083  00000+0  17745-3 0  9996
2 50485  87.9184 342.4398 0001398  89.2788 270.8504 13.18684217217352
ONEWEB-0406             
1 50486U 21132T   26133.06847380  .00000083  00000+0  17844-3 0  9990
2 50486  87.9172 342.4462 0002082 101.7126 258.4240 13.18687644216994
ONEWEB-0407             
1 50487U 21132U   26133.06171787  .00000125  00000+0  28372-3 0  9997
2 50487  87.9185 342.4369 0001845  79.8824 280.2516 13.18694054216937
ONEWEB-0409             
1 50488U 21132V   26133.15700321  .00000614  00000+0  16964-2 0  9996
2 50488  87.8925  28.0206 0001773  89.9244 270.2087 13.11416483210997
ONEWEB-0412             
1 50489U 21132W   26133.04992082  .00000041  00000+0  71823-4 0  9993
2 50489  87.9174 342.4490 0002051  80.4061 279.7303 13.18687063217023
ONEWEB-0413             
1 50490U 21132X   26133.05497678  .00000055  00000+0  10592-3 0  9997
2 50490  87.9170 342.4494 0001970  78.7637 281.3717 13.18686543216965
ONEWEB-0414             
1 50491U 21132Y   26133.03979157  .00000082  00000+0  17585-3 0  9992
2 50491  87.9180 342.4308 0001995  85.9545 274.1815 13.18686830216997
ONEWEB-0417             
1 50492U 21132Z   26133.04823632  .00000052  00000+0  99937-4 0  9999
2 50492  87.9170 342.4517 0001826  93.2407 266.8934 13.18687719216976
ONEWEB-0418             
1 50493U 21132AA  26133.05819180 -.00002343  00000+0 -59754-2 0  9992
2 50493  87.9178 342.4462 0001814  98.0204 262.1134 13.18698217217033
ONEWEB-0419             
1 50494U 21132AB  26133.00035508  .00000110  00000+0  24716-3 0  9991
2 50494  87.9182 342.4570 0001680  93.1401 266.9923 13.18663597216945
ONEWEB-0420             
1 50495U 21132AC  26133.04147517  .00000118  00000+0  26563-3 0  9990
2 50495  87.9171 342.4553 0001771  79.8747 280.2585 13.18686765216945
ONEWEB-0421             
1 50496U 21132AD  26133.11060190  .00000005  00000+0 -21116-4 0  9996
2 50496  87.9175 342.4373 0002215  85.9798 274.1588 13.18685006216995
ONEWEB-0424             
1 50497U 21132AE  26133.07184692  .00000113  00000+0  25380-3 0  9991
2 50497  87.9180 342.4418 0001513  92.4708 267.6598 13.18686844217019
ONEWEB-0426             
1 50498U 21132AF  26133.03065467  .00000026  00000+0  33405-4 0  9997
2 50498  87.9178 342.4414 0002410  97.1982 262.9424 13.18772423216953
