[{"OBJECT_NAME":"ONEWEB-0403","OBJECT_ID":"2021-132Q","EPOCH":"2026-05-13T01:31:18.120288","MEAN_MOTION":13.1868632,"ECCENTRICITY":0.00019,"INCLINATION":87.9178,"RA_OF_ASC_NODE":342.4442,"ARG_OF_PERICENTER":90.5023,"MEAN_ANOMALY":269.6327,"EPHEMERIS_TYPE":0,"CLASSIFICATION_TYPE":"U","NORAD_CAT_ID":50483,"ELEMENT_SET_NO":999,"REV_AT_EPOCH":21696,"BSTAR":0.00040700999999999997,"MEAN_MOTION_DOT":1.73e-06,"MEAN_MOTION_DDOT":0.0},{"OBJECT_NAME":"ONEWEB-0404","OBJECT_ID":"2021-132R","EPOCH":"2026-05-13T00:08:47.190336","MEAN_MOTION":13.11415658,"ECCENTRICITY":0.0001912,"INCLINATION":87.8915,"RA_OF_ASC_NODE":28.0643,"ARG_OF_PERICENTER":90.2221,"MEAN_ANOMALY":269.9127,"EPHEMERIS_TYPE":0,"CLASSIFICATION_TYPE":"U","NORAD_CAT_ID":50484,"ELEMENT_SET_NO":999,"REV_AT_EPOCH":21108,"BSTAR":0.0017388999999999998,"MEAN_MOTION_DOT":6.29e-06,"MEAN_MOTION_DDOT":0.0},{"OBJECT_NAME":"ONEWEB-0405","OBJECT_ID":"2021-132S","EPOCH":"2026-05-13T00:01:26.401728","MEAN_MOTION":13.18684217,"ECCENTRICITY":0.0001398,"INCLINATION":87.9184,"RA_OF_ASC_NODE":342.4398,"ARG_OF_PERICENTER":89.2788,"MEAN_ANOMALY":270.8504,"EPHEMERIS_TYPE":0,"CLASSIFICATION_TYPE":"U","NORAD_CAT_ID":50485,"ELEMENT_SET_NO":999,"REV_AT_EPOCH":21735,"BSTAR":0.00017745,"MEAN_MOTION_DOT":8.3e-07,"MEAN_MOTION_DDOT":0.0},{"OBJECT_NAME":"ONEWEB-0406","OBJECT_ID":"2021-132T","EPOCH":"2026-05-13T01:38:36.136320","MEAN_MOTION":13.18687644,"ECCENTRICITY":0.0002082,"INCLINATION":87.9172,"RA_OF_ASC_NODE":342.4462,"ARG_OF_PERICENTER":101.7126,"MEAN_ANOMALY":258.424,"EPHEMERIS_TYPE":0,"CLASSIFICATION_TYPE":"U","NORAD_CAT_ID":50486,"ELEMENT_SET_NO":999,"REV_AT_EPOCH":21699,"BSTAR":0.00017843999999999998,"MEAN_MOTION_DOT":8.3e-07,"MEAN_MOTION_DDOT":0.0},{"OBJECT_NAME":"ONEWEB-0407","OBJECT_ID":"2021-132U","EPOCH":"2026-05-13T01:28:52.423968","MEAN_MOTION":13.18694054,"ECCENTRICITY":0.0001845,"INCLINATION":87.9185,"RA_OF_ASC_NODE":342.4369,"ARG_OF_PERICENTER":79.8824,"MEAN_ANOMALY":280.2516,"EPHEMERIS_TYPE":0,"CLASSIFICATION_TYPE":"U","NORAD_CAT_ID":50487,"ELEMENT_SET_NO":999,"REV_AT_EPOCH":21693,"BSTAR":0.00028372000000000006,"MEAN_MOTION_DOT":1.25e-06,"MEAN_MOTION_DDOT":0.0},{"OBJECT_NAME":"ONEWEB-0409","OBJECT_ID":"2021-132V","EPOCH":"2026-05-13T03:46:05.077344","MEAN_MOTION":13.11416483,"ECCENTRICITY":0.0001773,"INCLINATION":87.8925,"RA_OF_ASC_NODE":28.0206,"ARG_OF_PERICENTER":89.9244,"MEAN_ANOMALY":270.2087,"EPHEMERIS_TYPE":0,"CLASSIFICATION_TYPE":"U","NORAD_CAT_ID":50488,"ELEMENT_SET_NO":999,"REV_AT_EPOCH":21099,"BSTAR":0.0016964000000000003,"MEAN_MOTION_DOT":6.14e-06,"MEAN_MOTION_DDOT":0.0},{"OBJECT_NAME":"ONEWEB-0412","OBJECT_ID":"2021-132W","EPOCH":"2026-05-13T01:11:53.158848","MEAN_MOTION":13.18687063,"ECCENTRICITY":0.0002051,"INCLINATION":87.9174,"RA_OF_ASC_NODE":342.449,"ARG_OF_PERICENTER":80.4061,"MEAN_ANOMALY":279.7303,"EPHEMERIS_TYPE":0,"CLASSIFICATION_TYPE":"U","NORAD_CAT_ID":50489,"ELEMENT_SET_NO":999,"REV_AT_EPOCH":21702,"BSTAR":7.1823e-05,"MEAN_MOTION_DOT":4.1e-07,"MEAN_MOTION_DDOT":0.0},{"OBJECT_NAME":"ONEWEB-0413","OBJECT_ID":"2021-132X","EPOCH":"2026-05-13T01:19:09.993792","MEAN_MOTION":13.18686543,"ECCENTRICITY":0.000197,"INCLINATION":87.917,"RA_OF_ASC_NODE":342.4494,"ARG_OF_PERICENTER":78.7637,"MEAN_ANOMALY":281.3717,"EPHEMERIS_TYPE":0,"CLASSIFICATION_TYPE":"U","NORAD_CAT_ID":50490,"ELEMENT_SET_NO":999,"REV_AT_EPOCH":21696,"BSTAR":0.00010592,"MEAN_MOTION_DOT":5.5e-07,"MEAN_MOTION_DDOT":0.0},{"OBJECT_NAME":"ONEWEB-0414","OBJECT_ID":"2021-132Y","EPOCH":"2026-05-13T00:57:17.991648","MEAN_MOTION":13.1868683,"ECCENTRICITY":0.0001995,"INCLINATION":87.918,"RA_OF_ASC_NODE":342.4308,"ARG_OF_PERICENTER":85.9545,"MEAN_ANOMALY":274.1815,"EPHEMERIS_TYPE":0,"CLASSIFICATION_TYPE":"U","NORAD_CAT_ID":50491,"ELEMENT_SET_NO":999,"REV_AT_EPOCH":21699,"BSTAR":0.00017585000000000002,"MEAN_MOTION_DOT":8.2e-07,"MEAN_MOTION_DDOT":0.0},{"OBJECT_NAME":"ONEWEB-0417","OBJECT_ID":"2021-132Z","EPOCH":"2026-05-13T01:09:27.618048","MEAN_MOTION":13.18687719,"ECCENTRICITY":0.0001826,"INCLINATION":87.917,"RA_OF_ASC_NODE":342.4517,"ARG_OF_PERICENTER":93.2407,"MEAN_ANOMALY":266.8934,"EPHEMERIS_TYPE":0,"CLASSIFICATION_TYPE":"U","NORAD_CAT_ID":50492,"ELEMENT_SET_NO":999,"REV_AT_EPOCH":21697,"BSTAR":9.9937e-05,"MEAN_MOTION_DOT":5.2e-07,"MEAN_MOTION_DDOT":0.0},{"OBJECT_NAME":"ONEWEB-0418","OBJECT_ID":"2021-132AA","EPOCH":"2026-05-13T01:23:47.771520","MEAN_MOTION":13.18698217,"ECCENTRICITY":0.0001814,"INCLINATION":87.9178,"RA_OF_ASC_NODE":342.4462,"ARG_OF_PERICENTER":98.0204,"MEAN_ANOMALY":262.1134,"EPHEMERIS_TYPE":0,"CLASSIFICATION_TYPE":"U","NORAD_CAT_ID":50493,"ELEMENT_SET_NO":999,"REV_AT_EPOCH":21703,"BSTAR":-0.0059754,"MEAN_MOTION_DOT":-2.343e-05,"MEAN_MOTION_DDOT":0.0},{"OBJECT_NAME":"ONEWEB-0419","OBJECT_ID":"2021-132AB","EPOCH":"2026-05-13T00:00:30.678912","MEAN_MOTION":13.18663597,"ECCENTRICITY":0.000168,"INCLINATION":87.9182,"RA_OF_ASC_NODE":342.457,"ARG_OF_PERICENTER":93.1401,"MEAN_ANOMALY":266.9923,"EPHEMERIS_TYPE":0,"CLASSIFICATION_TYPE":"U","NORAD_CAT_ID":50494,"ELEMENT_SET_NO":999,"REV_AT_EPOCH":21694,"BSTAR":0.00024716,"MEAN_MOTION_DOT":1.1e-06,"MEAN_MOTION_DDOT":0.0},{"OBJECT_NAME":"ONEWEB-0420","OBJECT_ID":"2021-132AC","EPOCH":"2026-05-13T00:59:43.454688","MEAN_MOTION":13.18686765,"ECCENTRICITY":0.0001771,"INCLINATION":87.9171,"RA_OF_ASC_NODE":342.4553,"ARG_OF_PERICENTER":79.8747,"MEAN_ANOMALY":280.2585,"EPHEMERIS_TYPE":0,"CLASSIFICATION_TYPE":"U","NORAD_CAT_ID":50495,"ELEMENT_SET_NO":999,"REV_AT_EPOCH":21694,"BSTAR":0.00026563,"MEAN_MOTION_DOT":1.18e-06,"MEAN_MOTION_DDOT":0.0},{"OBJECT_NAME":"ONEWEB-0421","OBJECT_ID":"2021-132AD","EPOCH":"2026-05-13T02:39:16.004160","MEAN_MOTION":13.18685006,"ECCENTRICITY":0.0002215,"INCLINATION":87.9175,"RA_OF_ASC_NODE":342.4373,"ARG_OF_PERICENTER":85.9798,"MEAN_ANOMALY":274.1588,"EPHEMERIS_TYPE":0,"CLASSIFICATION_TYPE":"U","NORAD_CAT_ID":50496,"ELEMENT_SET_NO":999,"REV_AT_EPOCH":21699,"BSTAR":-2.1116e-05,"MEAN_MOTION_DOT":5e-08,"MEAN_MOTION_DDOT":0.0},{"OBJECT_NAME":"ONEWEB-0424","OBJECT_ID":"2021-132AE","EPOCH":"2026-05-13T01:43:27.573888","MEAN_MOTION":13.18686844,"ECCENTRICITY":0.0001513,"INCLINATION":87.918,"RA_OF_ASC_NODE":342.4418,"ARG_OF_PERICENTER":92.4708,"MEAN_ANOMALY":267.6598,"EPHEMERIS_TYPE":0,"CLASSIFICATION_TYPE":"U","NORAD_CAT_ID":50497,"ELEMENT_SET_NO":999,"REV_AT_EPOCH":21701,"BSTAR":0.00025380000000000004,"MEAN_MOTION_DOT":1.13e-06,"MEAN_MOTION_DDOT":0.0},{"OBJECT_NAME":"ONEWEB-0426","OBJECT_ID":"2021-132AF","EPOCH":"2026-05-13T00:44:08.563488","MEAN_MOTION":13.18772423,"ECCENTRICITY":0.000241,"INCLINATION":87.9178,"RA_OF_ASC_NODE":342.4414,"ARG_OF_PERICENTER":97.1982,"MEAN_ANOMALY":262.9424,"EPHEMERIS_TYPE":0,"CLASSIFICATION_TYPE":"U","NORAD_CAT_ID":50498,"ELEMENT_SET_NO":999,"REV_AT_EPOCH":21695,"BSTAR":3.3405e-05,"MEAN_MOTION_DOT":2.6e-07,"MEAN_MOTION_DDOT":0.0}]